[{"OBJECT_NAME":"OBJECT D","OBJECT_ID":"2024-085D","EPOCH":"2026-03-09T22:53:13.410816","MEAN_MOTION":15.33413141,"ECCENTRICITY":0.00152451,"INCLINATION":97.3312,"RA_OF_ASC_NODE":145.3953,"ARG_OF_PERICENTER":54.9672,"MEAN_ANOMALY":305.2998,"EPHEMERIS_TYPE":0,"CLASSIFICATION_TYPE":"U","NORAD_CAT_ID":59680,"ELEMENT_SET_NO":999,"REV_AT_EPOCH":10244,"BSTAR":0.00049264705,"MEAN_MOTION_DOT":0.00015903,"MEAN_MOTION_DDOT":0},{"OBJECT_NAME":"STARLINK-34606","OBJECT_ID":"2025-144G","EPOCH":"2026-03-09T15:00:19.674144","MEAN_MOTION":15.30188216,"ECCENTRICITY":8.54e-5,"INCLINATION":53.1601,"RA_OF_ASC_NODE":181.2267,"ARG_OF_PERICENTER":103.2301,"MEAN_ANOMALY":256.8795,"EPHEMERIS_TYPE":0,"CLASSIFICATION_TYPE":"U","NORAD_CAT_ID":64730,"ELEMENT_SET_NO":999,"REV_AT_EPOCH":3970,"BSTAR":0.0011569,"MEAN_MOTION_DOT":0.00034051,"MEAN_MOTION_DDOT":0}]
